OBJECT_NAME,OBJECT_ID,EPOCH,MEAN_MOTION,ECCENTRICITY,INCLINATION,RA_OF_ASC_NODE,ARG_OF_PERICENTER,MEAN_ANOMALY,EPHEMERIS_TYPE,CLASSIFICATION_TYPE,NORAD_CAT_ID,ELEMENT_SET_NO,REV_AT_EPOCH,BSTAR,MEAN_MOTION_DOT,MEAN_MOTION_DDOT
GALAXY 37 (G-37),2023-112A,2026-07-09T14:45:33.640416,1.00270173,.0001816,0.0156,47.3468,65.5182,269.0780,0,U,57493,999,1076,0,.61E-6,0
LUDI TANCE-4 01A,2023-120A,2026-07-08T00:26:06.611712,1.00265090,.00016704,15.0911,193.4584,26.4984,161.9389,0,U,57624,999,1075,0,-.151E-5,0
TJS-10,2023-169A,2026-07-09T17:11:12.667776,1.00266472,.0004521,2.5993,80.2231,109.9629,87.6051,0,U,58204,999,976,0,-.237E-5,0
ZHONGXING-6E,2023-172A,2026-07-09T21:02:40.545024,1.00264915,.0002121,0.0263,51.8218,59.7802,247.3425,0,U,58253,999,988,0,0,0
YAOGAN-41,2023-197A,2026-07-09T21:04:55.329024,1.00268620,.0014315,3.0890,313.4799,198.2638,215.4860,0,U,58582,999,955,0,-.347E-5,0
OVZON-3,2024-003A,2026-07-09T05:22:53.778720,1.00271937,.00001937,0.0177,79.7702,170.2448,177.5649,0,U,58698,999,766,0,.65E-6,0
INSAT-3DS,2024-033A,2026-07-09T02:33:38.465280,1.00271624,.00011255,0.0132,323.9347,158.0673,285.5291,0,U,58990,999,4728,0,-.142E-5,0
MERAH PUTIH 2,2024-035A,2026-07-09T07:20:42.978336,1.00269656,.00010126,0.0189,53.7629,64.3498,32.2607,0,U,58995,999,881,0,-.344E-5,0
TJS-11,2024-037A,2026-07-08T09:06:07.193088,1.00265296,.0002882,4.1725,327.3277,135.6071,72.4685,0,U,59020,999,879,0,-.347E-5,0
HULIANWAN GAOGUI-01 (HG-01),2024-040A,2026-07-09T18:56:43.010016,1.00267440,.0001724,0.0730,331.1042,75.2469,199.1848,0,U,59069,999,755,0,.168E-5,0
EUTELSAT 36D,2024-059A,2026-07-09T18:57:20.448864,1.00271506,.0000311,0.0264,46.0249,183.2838,18.6148,0,U,59346,999,837,0,0,0
PAKSAT-MM1,2024-104A,2026-07-09T17:15:21.250080,1.00269633,.0001995,0.0393,183.8259,268.8454,131.9949,0,U,59915,999,775,0,.166E-5,0
ASTRA 1P (SES-24),2024-115A,2026-07-09T17:09:59.264064,1.00267948,.0000674,0.0640,334.7647,228.1742,1.4161,0,U,60086,999,742,0,.132E-5,0
GOES 19,2024-119A,2026-07-09T13:17:41.191008,1.00270798,.0000544,0.0195,203.5869,356.4594,211.6712,0,U,60133,999,718,0,-.235E-5,0
ZHONGXING-3A,2024-122A,2026-07-09T20:58:40.926720,1.00273502,.0001403,0.0317,128.8607,33.0392,182.1473,0,U,60179,999,753,0,-.302E-5,0
TURKSAT 6A,2024-127A,2026-07-09T06:55:38.598816,1.00271523,.00027455,0.0631,228.1649,293.1336,271.8373,0,U,60233,999,723,0,.16E-5,0
HULIANWAN GAOGUI-02 (HG-02),2024-135A,2026-07-09T19:30:25.781760,1.00273700,.000663,0.0463,352.7782,16.0413,4.5594,0,U,60327,999,772,0,-.161E-5,0
ZHONGXING-4A,2024-151A,2026-07-09T15:02:00.674880,1.00270405,.0000265,1.2591,270.5507,288.4528,72.2879,0,U,60606,999,697,0,-.348E-5,0
HULIANWAN GAOGUI-03 (HG-03),2024-181A,2026-07-09T20:07:49.473120,1.00274411,.0001031,0.0497,355.7771,98.7565,58.0724,0,U,61503,999,705,0,-.229E-5,0
DSN-3 (KIRAMEKI-3),2024-198A,2026-07-09T16:02:51.760896,1.00268824,.0000924,0.0201,295.1807,218.0654,159.1083,0,U,61733,999,614,0,-.238E-5,0
KOREASAT 6A,2024-206A,2026-07-09T15:54:52.526880,1.00268655,.0000537,0.0141,41.6088,55.3899,185.3314,0,U,61910,999,606,0,0,0
OPTUS-X (ADS-01),2024-212A,2026-07-09T16:27:38.875968,1.00270496,.0002347,0.0063,56.2984,96.3878,178.2500,0,U,62006,999,598,0,-.131E-5,0
GSAT-N2 (GSAT-20),2024-214A,2026-07-09T05:25:08.563584,1.00270807,.00023741,0.0528,259.9649,155.6388,20.8011,0,U,62028,999,611,0,-.5E-7,0
SXM-9,2024-234A,2026-07-09T16:00:22.034016,1.00270279,.0004968,0.0155,338.6665,337.5167,126.3560,0,U,62259,999,580,0,-.192E-5,0
TJS-12,2024-246A,2026-07-09T17:46:15.754368,1.00270478,.0001824,0.6240,301.4024,98.9335,300.4613,0,U,62374,999,579,0,-.218E-5,0
NUVIEW ALPHA,2024-252B,2026-07-09T13:15:26.407008,1.00273512,.0000863,0.0418,20.4940,55.2130,327.5438,0,U,62455,999,404,0,-.203E-5,0
AGILA,2024-252C,2026-07-09T14:22:28.352064,1.00270782,.000116,0.0608,122.0875,27.1527,146.0590,0,U,62456,999,538,0,-.169E-5,0
NUVIEW BRAVO,2024-252D,2026-07-08T11:35:37.247136,1.00272089,.00015432,0.0687,162.0013,345.9598,229.2797,0,U,62457,999,400,0,-.2E-5,0
THURAYA-4,2025-001A,2026-07-09T17:17:06.081792,1.00272115,.0000188,0.0169,67.1120,189.1774,334.9420,0,U,62483,999,440,0,.152E-5,0
SHIJIAN-25 (SJ-25),2025-002A,2026-07-09T14:15:29.021760,1.00266132,.0052215,5.1633,61.0172,175.1404,32.5245,0,U,62485,999,558,0,-.342E-5,0
TJS-14,2025-017A,2026-07-09T20:35:02.065056,1.00273703,.0001742,0.7338,297.2239,293.2466,24.4774,0,U,62804,999,549,0,.129E-5,0
SPAINSAT NG I,2025-021A,2026-07-09T06:54:38.736576,1.00270264,.00001525,0.0162,22.9616,215.7107,181.1973,0,U,62852,999,420,0,.165E-5,0
