GALAXY 37 (G-37)        
1 57493U 23112A   26190.61497269  .00000061  00000+0  00000+0 0  9994
2 57493   0.0156  47.3468 0001816  65.5182 269.0780  1.00270173 10764
LUDI TANCE-4 01A        
1 57624U 23120A   26189.01813208 -.00000151  00000+0  00000+0 0  9997
2 57624  15.0911 193.4584 0001670  26.4984 161.9389  1.00265090 10757
TJS-10                  
1 58204U 23169A   26190.71611884 -.00000237  00000+0  00000+0 0  9995
2 58204   2.5993  80.2231 0004521 109.9629  87.6051  1.00266472  9760
ZHONGXING-6E            
1 58253U 23172A   26190.87685816  .00000000  00000+0  00000+0 0  9993
2 58253   0.0263  51.8218 0002121  59.7802 247.3425  1.00264915  9888
YAOGAN-41               
1 58582U 23197A   26190.87841816 -.00000347  00000+0  00000+0 0  9994
2 58582   3.0890 313.4799 0014315 198.2638 215.4860  1.00268620  9557
OVZON-3                 
1 58698U 24003A   26190.22423355  .00000065  00000+0  00000+0 0  9998
2 58698   0.0177  79.7702 0000193 170.2448 177.5649  1.00271937  7662
INSAT-3DS               
1 58990U 24033A   26190.10669520 -.00000142  00000+0  00000+0 0  9996
2 58990   0.0132 323.9347 0001125 158.0673 285.5291  1.00271624 47285
MERAH PUTIH 2           
1 58995U 24035A   26190.30605299 -.00000344  00000+0  00000+0 0  9992
2 58995   0.0189  53.7629 0001012  64.3498  32.2607  1.00269656  8818
TJS-11                  
1 59020U 24037A   26189.37924992 -.00000347  00000+0  00000+0 0  9996
2 59020   4.1725 327.3277 0002882 135.6071  72.4685  1.00265296  8798
HULIANWAN GAOGUI-01 (H*)
1 59069U 24040A   26190.78938669  .00000168  00000+0  00000+0 0  9996
2 59069   0.0730 331.1042 0001724  75.2469 199.1848  1.00267440  7553
EUTELSAT 36D            
1 59346U 24059A   26190.78982001  .00000000  00000+0  00000+0 0  9998
2 59346   0.0264  46.0249 0000311 183.2838  18.6148  1.00271506  8372
PAKSAT-MM1              
1 59915U 24104A   26190.71899595  .00000166  00000+0  00000+0 0  9992
2 59915   0.0393 183.8259 0001995 268.8454 131.9949  1.00269633  7758
ASTRA 1P (SES-24)       
1 60086U 24115A   26190.71526926  .00000132  00000+0  00000+0 0  9993
2 60086   0.0640 334.7647 0000674 228.1742   1.4161  1.00267948  7422
GOES 19                 
1 60133U 24119A   26190.55394897 -.00000235  00000+0  00000+0 0  9997
2 60133   0.0195 203.5869 0000544 356.4594 211.6712  1.00270798  7182
ZHONGXING-3A            
1 60179U 24122A   26190.87408480 -.00000302  00000+0  00000+0 0  9995
2 60179   0.0317 128.8607 0001403  33.0392 182.1473  1.00273502  7537
TURKSAT 6A              
1 60233U 24127A   26190.28864119  .00000160  00000+0  00000+0 0  9992
2 60233   0.0631 228.1649 0002745 293.1336 271.8373  1.00271523  7237
HULIANWAN GAOGUI-02 (H*)
1 60327U 24135A   26190.81279840 -.00000161  00000+0  00000+0 0  9997
2 60327   0.0463 352.7782 0006630  16.0413   4.5594  1.00273700  7720
ZHONGXING-4A            
1 60606U 24151A   26190.62639670 -.00000348  00000+0  00000+0 0  9992
2 60606   1.2591 270.5507 0000265 288.4528  72.2879  1.00270405  6970
HULIANWAN GAOGUI-03 (H*)
1 61503U 24181A   26190.83876705 -.00000229  00000+0  00000+0 0  9995
2 61503   0.0497 355.7771 0001031  98.7565  58.0724  1.00274411  7055
DSN-3 (KIRAMEKI-3)      
1 61733U 24198A   26190.66865464 -.00000238  00000+0  00000+0 0  9999
2 61733   0.0201 295.1807 0000924 218.0654 159.1083  1.00268824  6147
KOREASAT 6A             
1 61910U 24206A   26190.66310795  .00000000  00000+0  00000+0 0  9994
2 61910   0.0141  41.6088 0000537  55.3899 185.3314  1.00268655  6066
OPTUS-X (ADS-01)        
1 62006U 24212A   26190.68586662 -.00000131  00000+0  00000+0 0  9994
2 62006   0.0063  56.2984 0002347  96.3878 178.2500  1.00270496  5980
GSAT-N2 (GSAT-20)       
1 62028U 24214A   26190.22579356 -.00000005  00000+0  00000+0 0  9992
2 62028   0.0528 259.9649 0002374 155.6388  20.8011  1.00270807  6116
SXM-9                   
1 62259U 24234A   26190.66692169 -.00000192  00000+0  00000+0 0  9993
2 62259   0.0155 338.6665 0004968 337.5167 126.3560  1.00270279  5807
TJS-12                  
1 62374U 24246A   26190.74046012 -.00000218  00000+0  00000+0 0  9992
2 62374   0.6240 301.4024 0001824  98.9335 300.4613  1.00270478  5799
NUVIEW ALPHA            
1 62455U 24252B   26190.55238897 -.00000203  00000+0  00000+0 0  9996
2 62455   0.0418  20.4940 0000863  55.2130 327.5438  1.00273512  4040
AGILA                   
1 62456U 24252C   26190.59893926 -.00000169  00000+0  00000+0 0  9992
2 62456   0.0608 122.0875 0001160  27.1527 146.0590  1.00270782  5384
NUVIEW BRAVO            
1 62457U 24252D   26189.48306999 -.00000200  00000+0  00000+0 0  9994
2 62457   0.0687 162.0013 0001543 345.9598 229.2797  1.00272089  4007
THURAYA-4               
1 62483U 25001A   26190.72020928  .00000152  00000+0  00000+0 0  9995
2 62483   0.0169  67.1120 0000188 189.1774 334.9420  1.00272115  4404
SHIJIAN-25 (SJ-25)      
1 62485U 25002A   26190.59408590 -.00000342  00000+0  00000+0 0  9990
2 62485   5.1633  61.0172 0052215 175.1404  32.5245  1.00266132  5589
TJS-14                  
1 62804U 25017A   26190.85766279  .00000129  00000+0  00000+0 0  9993
2 62804   0.7338 297.2239 0001742 293.2466  24.4774  1.00273703  5492
SPAINSAT NG I           
1 62852U 25021A   26190.28794834  .00000165  00000+0  00000+0 0  9996
2 62852   0.0162  22.9616 0000152 215.7107 181.1973  1.00270264  4209
